source_origin_time,source_end_time,source_magnitude,p_arrival_sample,s_arrival_sample,snr,waveform_index,station
2018-01-05T07:56:03.230000Z,2018-01-05T07:57:03.230000Z,4.77,3050,None,-0.33000001311302185,897,FAKI
2018-01-05T07:56:03.230000Z,2018-01-05T07:57:03.230000Z,4.77,None,None,0.0,898,GSI
2018-01-05T07:56:03.230000Z,2018-01-05T07:57:03.230000Z,4.77,5164,None,0.029999999329447746,899,JAGI
2018-01-05T07:56:03.230000Z,2018-01-05T07:57:03.230000Z,4.77,None,None,0.0,900,LHMI
2018-01-05T07:56:03.230000Z,2018-01-05T07:57:03.230000Z,4.77,None,None,0.0,901,LUWI
2018-01-05T07:56:03.230000Z,2018-01-05T07:57:03.230000Z,4.77,None,None,0.0,902,MMRI
2018-01-05T07:56:03.230000Z,2018-01-05T07:57:03.230000Z,4.77,4729,None,-0.2199999988079071,903,PLAI
2018-01-05T07:56:03.230000Z,2018-01-05T07:57:03.230000Z,4.77,None,None,0.0,904,PMBI
2018-01-05T07:56:03.230000Z,2018-01-05T07:57:03.230000Z,4.77,None,None,0.0,905,SANI
2018-01-05T07:56:03.230000Z,2018-01-05T07:57:03.230000Z,4.77,None,None,0.0,906,SAUI
2018-01-05T07:56:03.230000Z,2018-01-05T07:57:03.230000Z,4.77,None,None,0.0,907,SMRI
2018-01-05T07:56:03.230000Z,2018-01-05T07:57:03.230000Z,4.77,4471,None,0.17000000178813934,908,SOEI
2018-01-05T07:56:03.230000Z,2018-01-05T07:57:03.230000Z,4.77,None,None,0.0,909,TNTI
2018-01-05T07:56:03.230000Z,2018-01-05T07:57:03.230000Z,4.77,2233,None,0.10999999940395355,910,TOLI2
2018-01-05T07:56:03.230000Z,2018-01-05T07:57:03.230000Z,4.77,None,None,0.0,911,UGM
2018-01-05T02:47:40.280000Z,2018-01-05T02:48:40.280000Z,4.53,None,None,0.0,912,BBJI
2018-01-05T02:47:40.280000Z,2018-01-05T02:48:40.280000Z,4.53,None,None,0.0,913,BKB
2018-01-05T02:47:40.280000Z,2018-01-05T02:48:40.280000Z,4.53,None,None,0.0,914,BKNI
2018-01-05T02:47:40.280000Z,2018-01-05T02:48:40.280000Z,4.53,None,None,0.0,915,BNDI
2018-01-05T02:47:40.280000Z,2018-01-05T02:48:40.280000Z,4.53,None,None,0.0,916,FAKI
2018-01-05T02:47:40.280000Z,2018-01-05T02:48:40.280000Z,4.53,None,None,0.0,917,GSI
2018-01-05T02:47:40.280000Z,2018-01-05T02:48:40.280000Z,4.53,None,None,0.0,918,JAGI
2018-01-05T02:47:40.280000Z,2018-01-05T02:48:40.280000Z,4.53,None,None,0.0,919,LHMI
2018-01-05T02:47:40.280000Z,2018-01-05T02:48:40.280000Z,4.53,None,None,0.0,920,LUWI
2018-01-05T02:47:40.280000Z,2018-01-05T02:48:40.280000Z,4.53,None,None,0.0,921,MMRI
2018-01-05T02:47:40.280000Z,2018-01-05T02:48:40.280000Z,4.53,None,None,0.0,922,PLAI
2018-01-05T02:47:40.280000Z,2018-01-05T02:48:40.280000Z,4.53,None,None,0.0,923,PMBI
2018-01-05T02:47:40.280000Z,2018-01-05T02:48:40.280000Z,4.53,None,None,0.0,924,SANI
2018-01-05T02:47:40.280000Z,2018-01-05T02:48:40.280000Z,4.53,None,None,0.0,925,SAUI
2018-01-05T02:47:40.280000Z,2018-01-05T02:48:40.280000Z,4.53,None,None,0.0,926,SMRI
2018-01-05T02:47:40.280000Z,2018-01-05T02:48:40.280000Z,4.53,None,None,0.0,927,SOEI
2018-01-05T02:47:40.280000Z,2018-01-05T02:48:40.280000Z,4.53,None,None,0.0,928,TNTI
2018-01-05T02:47:40.280000Z,2018-01-05T02:48:40.280000Z,4.53,736,None,0.23000000417232513,929,TOLI2
2018-01-05T02:47:40.280000Z,2018-01-05T02:48:40.280000Z,4.53,None,None,0.0,930,UGM
2018-01-04T19:57:33.550000Z,2018-01-04T19:58:33.550000Z,5.07,4794,None,0.12999999523162842,931,BBJI
2018-01-04T19:57:33.550000Z,2018-01-04T19:58:33.550000Z,5.07,None,None,0.0,932,BKB
2018-01-04T19:57:33.550000Z,2018-01-04T19:58:33.550000Z,5.07,2367,None,-0.20999999344348907,933,BKNI
2018-01-04T19:57:33.550000Z,2018-01-04T19:58:33.550000Z,5.07,None,None,0.0,934,BNDI
2018-01-04T19:57:33.550000Z,2018-01-04T19:58:33.550000Z,5.07,8370,None,0.38999998569488525,935,FAKI
2018-01-04T19:57:33.550000Z,2018-01-04T19:58:33.550000Z,5.07,1642,None,3.359999895095825,936,GSI
2018-01-04T19:57:33.550000Z,2018-01-04T19:58:33.550000Z,5.07,5907,None,0.07000000029802322,937,JAGI
2018-01-04T19:57:33.550000Z,2018-01-04T19:58:33.550000Z,5.07,844,None,-0.4699999988079071,938,LHMI
2018-01-04T19:57:33.550000Z,2018-01-04T19:58:33.550000Z,5.07,6734,None,-0.12999999523162842,939,LUWI
2018-01-04T19:57:33.550000Z,2018-01-04T19:58:33.550000Z,5.07,None,None,0.0,940,MMRI
2018-01-04T19:57:33.550000Z,2018-01-04T19:58:33.550000Z,5.07,None,None,0.0,941,PLAI
2018-01-04T19:57:33.550000Z,2018-01-04T19:58:33.550000Z,5.07,3653,None,-0.05000000074505806,942,PMBI
2018-01-04T19:57:33.550000Z,2018-01-04T19:58:33.550000Z,5.07,7252,None,-0.15000000596046448,943,SANI
2018-01-04T19:57:33.550000Z,2018-01-04T19:58:33.550000Z,5.07,None,None,0.0,944,SAUI
2018-01-04T19:57:33.550000Z,2018-01-04T19:58:33.550000Z,5.07,5247,None,0.17000000178813934,945,SMRI
2018-01-04T19:57:33.550000Z,2018-01-04T19:58:33.550000Z,5.07,7476,None,0.18000000715255737,946,SOEI
2018-01-04T19:57:33.550000Z,2018-01-04T19:58:33.550000Z,5.07,None,None,0.0,947,TNTI
2018-01-04T19:57:33.550000Z,2018-01-04T19:58:33.550000Z,5.07,6285,None,-0.009999999776482582,948,TOLI2
2018-01-04T19:57:33.550000Z,2018-01-04T19:58:33.550000Z,5.07,None,None,0.0,949,UGM
2018-01-04T16:32:43.180000Z,2018-01-04T16:33:43.180000Z,3.99,None,None,0.0,950,BBJI
2018-01-04T16:32:43.180000Z,2018-01-04T16:33:43.180000Z,3.99,None,None,0.0,951,BKB
2018-01-04T16:32:43.180000Z,2018-01-04T16:33:43.180000Z,3.99,None,None,0.0,952,BKNI
2018-01-04T16:32:43.180000Z,2018-01-04T16:33:43.180000Z,3.99,None,None,0.0,953,BNDI
2018-01-04T16:32:43.180000Z,2018-01-04T16:33:43.180000Z,3.99,None,None,0.0,954,FAKI
2018-01-04T16:32:43.180000Z,2018-01-04T16:33:43.180000Z,3.99,None,None,0.0,955,GSI
2018-01-04T16:32:43.180000Z,2018-01-04T16:33:43.180000Z,3.99,None,None,0.0,956,JAGI
2018-01-04T16:32:43.180000Z,2018-01-04T16:33:43.180000Z,3.99,None,None,0.0,957,LHMI
2018-01-04T16:32:43.180000Z,2018-01-04T16:33:43.180000Z,3.99,None,None,0.0,958,LUWI
2018-01-04T16:32:43.180000Z,2018-01-04T16:33:43.180000Z,3.99,1422,None,0.27000001072883606,959,MMRI
2018-01-04T16:32:43.180000Z,2018-01-04T16:33:43.180000Z,3.99,1510,None,-0.10000000149011612,960,PLAI
2018-01-04T16:32:43.180000Z,2018-01-04T16:33:43.180000Z,3.99,None,None,0.0,961,PMBI
2018-01-04T16:32:43.180000Z,2018-01-04T16:33:43.180000Z,3.99,2293,None,-0.23999999463558197,962,SANI
2018-01-04T16:32:43.180000Z,2018-01-04T16:33:43.180000Z,3.99,None,None,0.0,963,SAUI
2018-01-04T16:32:43.180000Z,2018-01-04T16:33:43.180000Z,3.99,None,None,0.0,964,SMRI
2018-01-04T16:32:43.180000Z,2018-01-04T16:33:43.180000Z,3.99,1740,None,0.5400000214576721,965,SOEI
2018-01-04T16:32:43.180000Z,2018-01-04T16:33:43.180000Z,3.99,None,None,0.0,966,TNTI
2018-01-04T16:32:43.180000Z,2018-01-04T16:33:43.180000Z,3.99,2425,None,-0.07000000029802322,967,TOLI2
2018-01-04T16:32:43.180000Z,2018-01-04T16:33:43.180000Z,3.99,None,None,0.0,968,UGM
2018-01-04T15:54:06.790000Z,2018-01-04T15:55:06.790000Z,4.58,2519,None,-0.12999999523162842,969,BBJI
2018-01-04T15:54:06.790000Z,2018-01-04T15:55:06.790000Z,4.58,None,None,0.0,970,BKB
2018-01-04T15:54:06.790000Z,2018-01-04T15:55:06.790000Z,4.58,615,None,1.4600000381469727,971,BKNI
2018-01-04T15:54:06.790000Z,2018-01-04T15:55:06.790000Z,4.58,None,None,0.0,972,BNDI
2018-01-04T15:54:06.790000Z,2018-01-04T15:55:06.790000Z,4.58,None,None,0.0,973,FAKI
2018-01-04T15:54:06.790000Z,2018-01-04T15:55:06.790000Z,4.58,1286,None,2.049999952316284,974,GSI
2018-01-04T15:54:06.790000Z,2018-01-04T15:55:06.790000Z,4.58,None,None,0.0,975,JAGI
2018-01-04T15:54:06.790000Z,2018-01-04T15:55:06.790000Z,4.58,2144,None,-0.05999999865889549,976,LHMI
2018-01-04T15:54:06.790000Z,2018-01-04T15:55:06.790000Z,4.58,None,None,0.0,977,LUWI
2018-01-04T15:54:06.790000Z,2018-01-04T15:55:06.790000Z,4.58,None,None,0.0,978,MMRI
2018-01-04T15:54:06.790000Z,2018-01-04T15:55:06.790000Z,4.58,None,None,0.0,979,PLAI
2018-01-04T15:54:06.790000Z,2018-01-04T15:55:06.790000Z,4.58,None,None,0.0,980,PMBI
2018-01-04T15:54:06.790000Z,2018-01-04T15:55:06.790000Z,4.58,None,None,0.0,981,SANI
2018-01-04T15:54:06.790000Z,2018-01-04T15:55:06.790000Z,4.58,None,None,0.0,982,SAUI
2018-01-04T15:54:06.790000Z,2018-01-04T15:55:06.790000Z,4.58,None,None,0.0,983,SMRI
2018-01-04T15:54:06.790000Z,2018-01-04T15:55:06.790000Z,4.58,None,None,0.0,984,SOEI
2018-01-04T15:54:06.790000Z,2018-01-04T15:55:06.790000Z,4.58,None,None,0.0,985,TNTI
2018-01-04T15:54:06.790000Z,2018-01-04T15:55:06.790000Z,4.58,5224,None,0.14000000059604645,986,TOLI2
2018-01-04T15:54:06.790000Z,2018-01-04T15:55:06.790000Z,4.58,3198,None,-0.6100000143051147,987,UGM
2018-01-04T13:26:34.350000Z,2018-01-04T13:27:34.350000Z,4.6,None,None,0.0,988,BBJI
2018-01-04T13:26:34.350000Z,2018-01-04T13:27:34.350000Z,4.6,None,None,0.0,989,BKB
2018-01-04T13:26:34.350000Z,2018-01-04T13:27:34.350000Z,4.6,None,None,0.0,990,BKNI
2018-01-04T13:26:34.350000Z,2018-01-04T13:27:34.350000Z,4.6,None,None,0.0,991,BNDI
2018-01-04T13:26:34.350000Z,2018-01-04T13:27:34.350000Z,4.6,3059,None,0.019999999552965164,992,FAKI
2018-01-04T13:26:34.350000Z,2018-01-04T13:27:34.350000Z,4.6,None,None,0.0,993,GSI
2018-01-04T13:26:34.350000Z,2018-01-04T13:27:34.350000Z,4.6,None,None,0.0,994,JAGI
2018-01-04T13:26:34.350000Z,2018-01-04T13:27:34.350000Z,4.6,None,None,0.0,995,LHMI
2018-01-04T13:26:34.350000Z,2018-01-04T13:27:34.350000Z,4.6,None,None,0.0,996,LUWI
2018-01-04T13:26:34.350000Z,2018-01-04T13:27:34.350000Z,4.6,380,None,-0.49000000953674316,997,MMRI
2018-01-04T13:26:34.350000Z,2018-01-04T13:27:34.350000Z,4.6,1519,None,-0.3700000047683716,998,PLAI
2018-01-04T13:26:34.350000Z,2018-01-04T13:27:34.350000Z,4.6,None,None,0.0,999,PMBI
2018-01-04T13:26:34.350000Z,2018-01-04T13:27:34.350000Z,4.6,2112,None,0.7900000214576721,1000,SANI
2018-01-04T13:26:34.350000Z,2018-01-04T13:27:34.350000Z,4.6,None,None,0.0,1001,SAUI
2018-01-04T13:26:34.350000Z,2018-01-04T13:27:34.350000Z,4.6,None,None,0.0,1002,SMRI
2018-01-04T13:26:34.350000Z,2018-01-04T13:27:34.350000Z,4.6,599,None,-1.5700000524520874,1003,SOEI
2018-01-04T13:26:34.350000Z,2018-01-04T13:27:34.350000Z,4.6,None,None,0.0,1004,TNTI
2018-01-04T13:26:34.350000Z,2018-01-04T13:27:34.350000Z,4.6,None,None,0.0,1005,TOLI2
2018-01-04T13:26:34.350000Z,2018-01-04T13:27:34.350000Z,4.6,None,None,0.0,1006,UGM
2018-01-04T10:39:25.680000Z,2018-01-04T10:40:25.680000Z,4.35,1501,None,0.05000000074505806,1007,BBJI
2018-01-04T10:39:25.680000Z,2018-01-04T10:40:25.680000Z,4.35,None,None,0.0,1008,BKB
2018-01-04T10:39:25.680000Z,2018-01-04T10:40:25.680000Z,4.35,None,None,0.0,1009,BKNI
2018-01-04T10:39:25.680000Z,2018-01-04T10:40:25.680000Z,4.35,None,None,0.0,1010,BNDI
2018-01-04T10:39:25.680000Z,2018-01-04T10:40:25.680000Z,4.35,None,None,0.0,1011,FAKI
2018-01-04T10:39:25.680000Z,2018-01-04T10:40:25.680000Z,4.35,None,None,0.0,1012,GSI
2018-01-04T10:39:25.680000Z,2018-01-04T10:40:25.680000Z,4.35,3333,None,-0.28999999165534973,1013,JAGI
2018-01-04T10:39:25.680000Z,2018-01-04T10:40:25.680000Z,4.35,None,None,0.0,1014,LHMI
2018-01-04T10:39:25.680000Z,2018-01-04T10:40:25.680000Z,4.35,None,None,0.0,1015,LUWI
2018-01-04T10:39:25.680000Z,2018-01-04T10:40:25.680000Z,4.35,None,None,0.0,1016,MMRI
2018-01-04T10:39:25.680000Z,2018-01-04T10:40:25.680000Z,4.35,None,None,0.0,1017,PLAI
2018-01-04T10:39:25.680000Z,2018-01-04T10:40:25.680000Z,4.35,1038,None,-0.10999999940395355,1018,PMBI
2018-01-04T10:39:25.680000Z,2018-01-04T10:40:25.680000Z,4.35,6076,None,0.3499999940395355,1019,SANI
2018-01-04T10:39:25.680000Z,2018-01-04T10:40:25.680000Z,4.35,None,None,0.0,1020,SAUI
2018-01-04T10:39:25.680000Z,2018-01-04T10:40:25.680000Z,4.35,None,None,0.0,1021,SMRI
2018-01-04T10:39:25.680000Z,2018-01-04T10:40:25.680000Z,4.35,None,None,0.0,1022,SOEI
2018-01-04T10:39:25.680000Z,2018-01-04T10:40:25.680000Z,4.35,None,None,0.0,1023,TNTI
2018-01-04T10:39:25.680000Z,2018-01-04T10:40:25.680000Z,4.35,None,None,0.0,1024,TOLI2
2018-01-04T10:39:25.680000Z,2018-01-04T10:40:25.680000Z,4.35,2303,None,-0.3400000035762787,1025,UGM
2018-01-03T14:46:17.200000Z,2018-01-03T14:47:17.200000Z,4.62,1323,None,0.5899999737739563,1026,BBJI
2018-01-03T14:46:17.200000Z,2018-01-03T14:47:17.200000Z,4.62,None,None,0.0,1027,BKB
2018-01-03T14:46:17.200000Z,2018-01-03T14:47:17.200000Z,4.62,None,None,0.0,1028,BKNI
2018-01-03T14:46:17.200000Z,2018-01-03T14:47:17.200000Z,4.62,None,None,0.0,1029,BNDI
2018-01-03T14:46:17.200000Z,2018-01-03T14:47:17.200000Z,4.62,None,None,0.0,1030,FAKI
2018-01-03T14:46:17.200000Z,2018-01-03T14:47:17.200000Z,4.62,None,None,0.0,1031,GSI
2018-01-03T14:46:17.200000Z,2018-01-03T14:47:17.200000Z,4.62,3084,None,0.17000000178813934,1032,JAGI
2018-01-03T14:46:17.200000Z,2018-01-03T14:47:17.200000Z,4.62,None,None,0.0,1033,LHMI
2018-01-03T14:46:17.200000Z,2018-01-03T14:47:17.200000Z,4.62,None,None,0.0,1034,LUWI
2018-01-03T14:46:17.200000Z,2018-01-03T14:47:17.200000Z,4.62,5101,None,0.20000000298023224,1035,MMRI
2018-01-03T14:46:17.200000Z,2018-01-03T14:47:17.200000Z,4.62,442,None,1.4299999475479126,1036,MNAI
2018-01-03T14:46:17.200000Z,2018-01-03T14:47:17.200000Z,4.62,None,None,0.0,1037,PLAI
2018-01-03T14:46:17.200000Z,2018-01-03T14:47:17.200000Z,4.62,None,None,0.0,1038,PMBI
2018-01-03T14:46:17.200000Z,2018-01-03T14:47:17.200000Z,4.62,None,None,0.0,1039,SANI
2018-01-03T14:46:17.200000Z,2018-01-03T14:47:17.200000Z,4.62,None,None,0.0,1040,SAUI
2018-01-03T14:46:17.200000Z,2018-01-03T14:47:17.200000Z,4.62,None,None,0.0,1041,SMRI
2018-01-03T14:46:17.200000Z,2018-01-03T14:47:17.200000Z,4.62,5600,None,0.1899999976158142,1042,SOEI
2018-01-03T14:46:17.200000Z,2018-01-03T14:47:17.200000Z,4.62,6329,None,-0.009999999776482582,1043,TNTI
2018-01-03T14:46:17.200000Z,2018-01-03T14:47:17.200000Z,4.62,5048,None,0.05999999865889549,1044,TOLI2
2018-01-03T14:46:17.200000Z,2018-01-03T14:47:17.200000Z,4.62,None,None,0.0,1045,UGM
2018-01-03T09:39:23.180000Z,2018-01-03T09:40:23.180000Z,4.46,None,None,0.0,1046,BBJI
2018-01-03T09:39:23.180000Z,2018-01-03T09:40:23.180000Z,4.46,None,None,0.0,1047,BKB
2018-01-03T09:39:23.180000Z,2018-01-03T09:40:23.180000Z,4.46,None,None,0.0,1048,BKNI
2018-01-03T09:39:23.180000Z,2018-01-03T09:40:23.180000Z,4.46,None,None,0.0,1049,BNDI
2018-01-03T09:39:23.180000Z,2018-01-03T09:40:23.180000Z,4.46,None,None,0.0,1050,FAKI
2018-01-03T09:39:23.180000Z,2018-01-03T09:40:23.180000Z,4.46,None,None,0.0,1051,GSI
2018-01-03T09:39:23.180000Z,2018-01-03T09:40:23.180000Z,4.46,None,None,0.0,1052,JAGI
2018-01-03T09:39:23.180000Z,2018-01-03T09:40:23.180000Z,4.46,None,None,0.0,1053,LHMI
2018-01-03T09:39:23.180000Z,2018-01-03T09:40:23.180000Z,4.46,2047,None,0.2800000011920929,1054,LUWI
2018-01-03T09:39:23.180000Z,2018-01-03T09:40:23.180000Z,4.46,None,None,0.0,1055,MMRI
2018-01-03T09:39:23.180000Z,2018-01-03T09:40:23.180000Z,4.46,None,None,0.0,1056,MNAI
2018-01-03T09:39:23.180000Z,2018-01-03T09:40:23.180000Z,4.46,None,None,0.0,1057,PLAI
2018-01-03T09:39:23.180000Z,2018-01-03T09:40:23.180000Z,4.46,None,None,0.0,1058,PMBI
2018-01-03T09:39:23.180000Z,2018-01-03T09:40:23.180000Z,4.46,None,None,0.0,1059,SANI
2018-01-03T09:39:23.180000Z,2018-01-03T09:40:23.180000Z,4.46,None,None,0.0,1060,SAUI
2018-01-03T09:39:23.180000Z,2018-01-03T09:40:23.180000Z,4.46,None,None,0.0,1061,SMRI
2018-01-03T09:39:23.180000Z,2018-01-03T09:40:23.180000Z,4.46,None,None,0.0,1062,SOEI
2018-01-03T09:39:23.180000Z,2018-01-03T09:40:23.180000Z,4.46,None,None,0.0,1063,TNTI
2018-01-03T09:39:23.180000Z,2018-01-03T09:40:23.180000Z,4.46,2002,None,-0.029999999329447746,1064,TOLI2
2018-01-03T09:39:23.180000Z,2018-01-03T09:40:23.180000Z,4.46,None,None,0.0,1065,UGM
2018-01-02T20:47:41.710000Z,2018-01-02T20:48:41.710000Z,4.96,None,None,0.0,1066,BBJI
2018-01-02T20:47:41.710000Z,2018-01-02T20:48:41.710000Z,4.96,None,None,0.0,1067,BKB
2018-01-02T20:47:41.710000Z,2018-01-02T20:48:41.710000Z,4.96,None,None,0.0,1068,BKNI
2018-01-02T20:47:41.710000Z,2018-01-02T20:48:41.710000Z,4.96,None,None,0.0,1069,BNDI
2018-01-02T20:47:41.710000Z,2018-01-02T20:48:41.710000Z,4.96,None,None,0.0,1070,FAKI
2018-01-02T20:47:41.710000Z,2018-01-02T20:48:41.710000Z,4.96,None,None,0.0,1071,GSI
2018-01-02T20:47:41.710000Z,2018-01-02T20:48:41.710000Z,4.96,None,None,0.0,1072,JAGI
2018-01-02T20:47:41.710000Z,2018-01-02T20:48:41.710000Z,4.96,None,None,0.0,1073,LHMI
2018-01-02T20:47:41.710000Z,2018-01-02T20:48:41.710000Z,4.96,None,None,0.0,1074,LUWI
2018-01-02T20:47:41.710000Z,2018-01-02T20:48:41.710000Z,4.96,None,None,0.0,1075,MMRI
2018-01-02T20:47:41.710000Z,2018-01-02T20:48:41.710000Z,4.96,None,None,0.0,1076,MNAI
2018-01-02T20:47:41.710000Z,2018-01-02T20:48:41.710000Z,4.96,None,None,0.0,1077,PLAI
2018-01-02T20:47:41.710000Z,2018-01-02T20:48:41.710000Z,4.96,None,None,0.0,1078,PMBI
2018-01-02T20:47:41.710000Z,2018-01-02T20:48:41.710000Z,4.96,None,None,0.0,1079,SANI
2018-01-02T20:47:41.710000Z,2018-01-02T20:48:41.710000Z,4.96,None,None,0.0,1080,SAUI
2018-01-02T20:47:41.710000Z,2018-01-02T20:48:41.710000Z,4.96,None,None,0.0,1081,SMRI
2018-01-02T20:47:41.710000Z,2018-01-02T20:48:41.710000Z,4.96,None,None,0.0,1082,SOEI
2018-01-02T20:47:41.710000Z,2018-01-02T20:48:41.710000Z,4.96,None,None,0.0,1083,TNTI
2018-01-02T20:47:41.710000Z,2018-01-02T20:48:41.710000Z,4.96,None,None,0.0,1084,TOLI2
2018-01-02T20:47:41.710000Z,2018-01-02T20:48:41.710000Z,4.96,None,None,0.0,1085,UGM
2018-01-02T17:47:10.810000Z,2018-01-02T17:48:10.810000Z,4.55,None,None,0.0,1086,BBJI
2018-01-02T17:47:10.810000Z,2018-01-02T17:48:10.810000Z,4.55,1955,None,0.3400000035762787,1087,BKB
2018-01-02T17:47:10.810000Z,2018-01-02T17:48:10.810000Z,4.55,None,None,0.0,1088,BKNI
2018-01-02T17:47:10.810000Z,2018-01-02T17:48:10.810000Z,4.55,2215,None,-0.5199999809265137,1089,BNDI
2018-01-02T17:47:10.810000Z,2018-01-02T17:48:10.810000Z,4.55,2612,None,0.05000000074505806,1090,FAKI
2018-01-02T17:47:10.810000Z,2018-01-02T17:48:10.810000Z,4.55,None,None,0.0,1091,GSI
2018-01-02T17:47:10.810000Z,2018-01-02T17:48:10.810000Z,4.55,None,None,0.0,1092,JAGI
2018-01-02T17:47:10.810000Z,2018-01-02T17:48:10.810000Z,4.55,None,None,0.0,1093,LHMI
2018-01-02T17:47:10.810000Z,2018-01-02T17:48:10.810000Z,4.55,522,None,-0.33000001311302185,1094,LUWI
2018-01-02T17:47:10.810000Z,2018-01-02T17:48:10.810000Z,4.55,None,None,0.0,1095,MMRI
2018-01-02T17:47:10.810000Z,2018-01-02T17:48:10.810000Z,4.55,None,None,0.0,1096,MNAI
2018-01-02T17:47:10.810000Z,2018-01-02T17:48:10.810000Z,4.55,None,None,0.0,1097,PLAI
2018-01-02T17:47:10.810000Z,2018-01-02T17:48:10.810000Z,4.55,None,None,0.0,1098,PMBI
2018-01-02T17:47:10.810000Z,2018-01-02T17:48:10.810000Z,4.55,None,None,0.0,1099,SANI
2018-01-02T17:47:10.810000Z,2018-01-02T17:48:10.810000Z,4.55,3128,None,-0.18000000715255737,1100,SAUI
2018-01-02T17:47:10.810000Z,2018-01-02T17:48:10.810000Z,4.55,None,None,0.0,1101,SMRI
2018-01-02T17:47:10.810000Z,2018-01-02T17:48:10.810000Z,4.55,2767,None,0.3700000047683716,1102,SOEI
2018-01-02T17:47:10.810000Z,2018-01-02T17:48:10.810000Z,4.55,1167,None,0.10999999940395355,1103,TNTI
2018-01-02T17:47:10.810000Z,2018-01-02T17:48:10.810000Z,4.55,912,None,-0.1899999976158142,1104,TOLI2
2018-01-02T17:47:10.810000Z,2018-01-02T17:48:10.810000Z,4.55,None,None,0.0,1105,UGM
2018-01-02T12:55:18.050000Z,2018-01-02T12:56:18.050000Z,4.96,None,None,0.0,1106,BBJI
2018-01-02T12:55:18.050000Z,2018-01-02T12:56:18.050000Z,4.96,None,None,0.0,1107,BKB
2018-01-02T12:55:18.050000Z,2018-01-02T12:56:18.050000Z,4.96,None,None,0.0,1108,BKNI
2018-01-02T12:55:18.050000Z,2018-01-02T12:56:18.050000Z,4.96,None,None,0.0,1109,BNDI
2018-01-02T12:55:18.050000Z,2018-01-02T12:56:18.050000Z,4.96,None,None,0.0,1110,FAKI
2018-01-02T12:55:18.050000Z,2018-01-02T12:56:18.050000Z,4.96,None,None,0.0,1111,GSI
2018-01-02T12:55:18.050000Z,2018-01-02T12:56:18.050000Z,4.96,None,None,0.0,1112,JAGI
2018-01-02T12:55:18.050000Z,2018-01-02T12:56:18.050000Z,4.96,None,None,0.0,1113,LHMI
2018-01-02T12:55:18.050000Z,2018-01-02T12:56:18.050000Z,4.96,None,None,0.0,1114,LUWI
2018-01-02T12:55:18.050000Z,2018-01-02T12:56:18.050000Z,4.96,None,None,0.0,1115,MMRI
2018-01-02T12:55:18.050000Z,2018-01-02T12:56:18.050000Z,4.96,None,None,0.0,1116,MNAI
2018-01-02T12:55:18.050000Z,2018-01-02T12:56:18.050000Z,4.96,None,None,0.0,1117,PLAI
2018-01-02T12:55:18.050000Z,2018-01-02T12:56:18.050000Z,4.96,None,None,0.0,1118,PMBI
2018-01-02T12:55:18.050000Z,2018-01-02T12:56:18.050000Z,4.96,2278,None,-0.03999999910593033,1119,SANI
2018-01-02T12:55:18.050000Z,2018-01-02T12:56:18.050000Z,4.96,None,None,0.0,1120,SAUI
