source_origin_time,source_end_time,source_magnitude,p_arrival_sample,s_arrival_sample,snr,waveform_index,station
2018-01-02T12:55:18.050000Z,2018-01-02T12:56:18.050000Z,4.96,None,None,0.0,1121,SMRI
2018-01-02T12:55:18.050000Z,2018-01-02T12:56:18.050000Z,4.96,None,None,0.0,1122,SOEI
2018-01-02T12:55:18.050000Z,2018-01-02T12:56:18.050000Z,4.96,1593,None,-0.019999999552965164,1123,TNTI
2018-01-02T12:55:18.050000Z,2018-01-02T12:56:18.050000Z,4.96,2226,None,-0.0,1124,TOLI2
2018-01-02T12:55:18.050000Z,2018-01-02T12:56:18.050000Z,4.96,None,None,0.0,1125,UGM
2018-01-02T12:04:08.210000Z,2018-01-02T12:05:08.210000Z,4.84,None,None,0.0,1126,BBJI
2018-01-02T12:04:08.210000Z,2018-01-02T12:05:08.210000Z,4.84,None,None,0.0,1127,BKB
2018-01-02T12:04:08.210000Z,2018-01-02T12:05:08.210000Z,4.84,None,None,0.0,1128,BKNI
2018-01-02T12:04:08.210000Z,2018-01-02T12:05:08.210000Z,4.84,None,None,0.0,1129,BNDI
2018-01-02T12:04:08.210000Z,2018-01-02T12:05:08.210000Z,4.84,None,None,0.0,1130,FAKI
2018-01-02T12:04:08.210000Z,2018-01-02T12:05:08.210000Z,4.84,7055,None,-0.03999999910593033,1131,GSI
2018-01-02T12:04:08.210000Z,2018-01-02T12:05:08.210000Z,4.84,None,None,0.0,1132,JAGI
2018-01-02T12:04:08.210000Z,2018-01-02T12:05:08.210000Z,4.84,None,None,0.0,1133,LHMI
2018-01-02T12:04:08.210000Z,2018-01-02T12:05:08.210000Z,4.84,2345,None,0.1599999964237213,1134,LUWI
2018-01-02T12:04:08.210000Z,2018-01-02T12:05:08.210000Z,4.84,None,None,0.0,1135,MMRI
2018-01-02T12:04:08.210000Z,2018-01-02T12:05:08.210000Z,4.84,None,None,0.0,1136,MNAI
2018-01-02T12:04:08.210000Z,2018-01-02T12:05:08.210000Z,4.84,4693,None,0.029999999329447746,1137,PLAI
2018-01-02T12:04:08.210000Z,2018-01-02T12:05:08.210000Z,4.84,None,None,0.0,1138,PMBI
2018-01-02T12:04:08.210000Z,2018-01-02T12:05:08.210000Z,4.84,2248,None,0.10000000149011612,1139,SANI
2018-01-02T12:04:08.210000Z,2018-01-02T12:05:08.210000Z,4.84,None,None,0.0,1140,SAUI
2018-01-02T12:04:08.210000Z,2018-01-02T12:05:08.210000Z,4.84,None,None,0.0,1141,SMRI
2018-01-02T12:04:08.210000Z,2018-01-02T12:05:08.210000Z,4.84,None,None,0.0,1142,SOEI
2018-01-02T12:04:08.210000Z,2018-01-02T12:05:08.210000Z,4.84,1549,None,0.019999999552965164,1143,TNTI
2018-01-02T12:04:08.210000Z,2018-01-02T12:05:08.210000Z,4.84,2203,None,0.03999999910593033,1144,TOLI2
2018-01-02T12:04:08.210000Z,2018-01-02T12:05:08.210000Z,4.84,None,None,0.0,1145,UGM
2018-01-01T16:32:38.610000Z,2018-01-01T16:33:38.610000Z,4.34,None,None,0.0,1146,BBJI
2018-01-01T16:32:38.610000Z,2018-01-01T16:33:38.610000Z,4.34,None,None,0.0,1147,BKB
2018-01-01T16:32:38.610000Z,2018-01-01T16:33:38.610000Z,4.34,None,None,0.0,1148,BKNI
2018-01-01T16:32:38.610000Z,2018-01-01T16:33:38.610000Z,4.34,None,None,0.0,1149,BNDI
2018-01-01T16:32:38.610000Z,2018-01-01T16:33:38.610000Z,4.34,None,None,0.0,1150,FAKI
2018-01-01T16:32:38.610000Z,2018-01-01T16:33:38.610000Z,4.34,None,None,0.0,1151,GSI
2018-01-01T16:32:38.610000Z,2018-01-01T16:33:38.610000Z,4.34,None,None,0.0,1152,JAGI
2018-01-01T16:32:38.610000Z,2018-01-01T16:33:38.610000Z,4.34,None,None,0.0,1153,LHMI
2018-01-01T16:32:38.610000Z,2018-01-01T16:33:38.610000Z,4.34,2137,None,-0.029999999329447746,1154,LUWI
2018-01-01T16:32:38.610000Z,2018-01-01T16:33:38.610000Z,4.34,564,None,-0.25,1155,MMRI
2018-01-01T16:32:38.610000Z,2018-01-01T16:33:38.610000Z,4.34,None,None,0.0,1156,MNAI
2018-01-01T16:32:38.610000Z,2018-01-01T16:33:38.610000Z,4.34,1109,None,0.9300000071525574,1157,PLAI
2018-01-01T16:32:38.610000Z,2018-01-01T16:33:38.610000Z,4.34,None,None,0.0,1158,PMBI
2018-01-01T16:32:38.610000Z,2018-01-01T16:33:38.610000Z,4.34,2247,None,0.07999999821186066,1159,SANI
2018-01-01T16:32:38.610000Z,2018-01-01T16:33:38.610000Z,4.34,None,None,0.0,1160,SAUI
2018-01-01T16:32:38.610000Z,2018-01-01T16:33:38.610000Z,4.34,None,None,0.0,1161,SMRI
2018-01-01T16:32:38.610000Z,2018-01-01T16:33:38.610000Z,4.34,1041,None,0.8700000047683716,1162,SOEI
2018-01-01T16:32:38.610000Z,2018-01-01T16:33:38.610000Z,4.34,3013,None,0.029999999329447746,1163,TNTI
2018-01-01T16:32:38.610000Z,2018-01-01T16:33:38.610000Z,4.34,2686,None,-0.009999999776482582,1164,TOLI2
2018-01-01T16:32:38.610000Z,2018-01-01T16:33:38.610000Z,4.34,None,None,0.0,1165,UGM
2018-01-01T16:25:35.990000Z,2018-01-01T16:26:35.990000Z,4.33,2502,None,-0.2199999988079071,1166,BBJI
2018-01-01T16:25:35.990000Z,2018-01-01T16:26:35.990000Z,4.33,None,None,0.0,1167,BKB
2018-01-01T16:25:35.990000Z,2018-01-01T16:26:35.990000Z,4.33,None,None,0.0,1168,BKNI
2018-01-01T16:25:35.990000Z,2018-01-01T16:26:35.990000Z,4.33,3610,None,0.25,1169,BNDI
2018-01-01T16:25:35.990000Z,2018-01-01T16:26:35.990000Z,4.33,4169,None,-0.11999999731779099,1170,FAKI
2018-01-01T16:25:35.990000Z,2018-01-01T16:26:35.990000Z,4.33,None,None,0.0,1171,GSI
2018-01-01T16:25:35.990000Z,2018-01-01T16:26:35.990000Z,4.33,1038,None,0.17000000178813934,1172,JAGI
2018-01-01T16:25:35.990000Z,2018-01-01T16:26:35.990000Z,4.33,None,None,0.0,1173,LHMI
2018-01-01T16:25:35.990000Z,2018-01-01T16:26:35.990000Z,4.33,None,None,0.0,1174,LUWI
2018-01-01T16:25:35.990000Z,2018-01-01T16:26:35.990000Z,4.33,1635,None,-0.3100000023841858,1175,MMRI
2018-01-01T16:25:35.990000Z,2018-01-01T16:26:35.990000Z,4.33,None,None,0.0,1176,MNAI
2018-01-01T16:25:35.990000Z,2018-01-01T16:26:35.990000Z,4.33,823,None,-1.2799999713897705,1177,PLAI
2018-01-01T16:25:35.990000Z,2018-01-01T16:26:35.990000Z,4.33,None,None,0.0,1178,PMBI
2018-01-01T16:25:35.990000Z,2018-01-01T16:26:35.990000Z,4.33,None,None,0.0,1179,SANI
2018-01-01T16:25:35.990000Z,2018-01-01T16:26:35.990000Z,4.33,None,None,0.0,1180,SAUI
2018-01-01T16:25:35.990000Z,2018-01-01T16:26:35.990000Z,4.33,1891,None,-0.3400000035762787,1181,SMRI
2018-01-01T16:25:35.990000Z,2018-01-01T16:26:35.990000Z,4.33,2163,None,0.07000000029802322,1182,SOEI
2018-01-01T16:25:35.990000Z,2018-01-01T16:26:35.990000Z,4.33,None,None,0.0,1183,TNTI
2018-01-01T16:25:35.990000Z,2018-01-01T16:26:35.990000Z,4.33,None,None,0.0,1184,TOLI2
2018-01-01T16:25:35.990000Z,2018-01-01T16:26:35.990000Z,4.33,None,None,0.0,1185,UGM
2018-01-01T07:26:02.990000Z,2018-01-01T07:27:02.990000Z,4.87,1821,None,0.20000000298023224,1186,BBJI
2018-01-01T07:26:02.990000Z,2018-01-01T07:27:02.990000Z,4.87,None,None,0.0,1187,BKB
2018-01-01T07:26:02.990000Z,2018-01-01T07:27:02.990000Z,4.87,1389,None,-0.07000000029802322,1188,BKNI
2018-01-01T07:26:02.990000Z,2018-01-01T07:27:02.990000Z,4.87,None,None,0.0,1189,BNDI
2018-01-01T07:26:02.990000Z,2018-01-01T07:27:02.990000Z,4.87,None,None,0.0,1190,FAKI
2018-01-01T07:26:02.990000Z,2018-01-01T07:27:02.990000Z,4.87,2062,None,-0.2199999988079071,1191,GSI
2018-01-01T07:26:02.990000Z,2018-01-01T07:27:02.990000Z,4.87,None,None,0.0,1192,JAGI
2018-01-01T07:26:02.990000Z,2018-01-01T07:27:02.990000Z,4.87,None,None,0.0,1193,LHMI
2018-01-01T07:26:02.990000Z,2018-01-01T07:27:02.990000Z,4.87,5551,None,0.3199999928474426,1194,LUWI
2018-01-01T07:26:02.990000Z,2018-01-01T07:27:02.990000Z,4.87,None,None,0.0,1195,MMRI
2018-01-01T07:26:02.990000Z,2018-01-01T07:27:02.990000Z,4.87,273,None,0.75,1196,MNAI
2018-01-01T07:26:02.990000Z,2018-01-01T07:27:02.990000Z,4.87,None,None,0.0,1197,PLAI
2018-01-01T07:26:02.990000Z,2018-01-01T07:27:02.990000Z,4.87,858,None,-0.09000000357627869,1198,PMBI
2018-01-01T07:26:02.990000Z,2018-01-01T07:27:02.990000Z,4.87,None,None,0.0,1199,SANI
2018-01-01T07:26:02.990000Z,2018-01-01T07:27:02.990000Z,4.87,None,None,0.0,1200,SAUI
2018-01-01T07:26:02.990000Z,2018-01-01T07:27:02.990000Z,4.87,None,None,0.0,1201,SMRI
2018-01-01T07:26:02.990000Z,2018-01-01T07:27:02.990000Z,4.87,None,None,0.0,1202,SOEI
2018-01-01T07:26:02.990000Z,2018-01-01T07:27:02.990000Z,4.87,None,None,0.0,1203,TNTI
2018-01-01T07:26:02.990000Z,2018-01-01T07:27:02.990000Z,4.87,5232,None,0.3799999952316284,1204,TOLI2
2018-01-01T07:26:02.990000Z,2018-01-01T07:27:02.990000Z,4.87,None,None,0.0,1205,UGM
2018-01-01T06:22:43.380000Z,2018-01-01T06:23:43.380000Z,4.86,1760,None,0.3400000035762787,1206,BBJI
2018-01-01T06:22:43.380000Z,2018-01-01T06:23:43.380000Z,4.86,None,None,0.0,1207,BKB
2018-01-01T06:22:43.380000Z,2018-01-01T06:23:43.380000Z,4.86,None,None,0.0,1208,BKNI
2018-01-01T06:22:43.380000Z,2018-01-01T06:23:43.380000Z,4.86,None,None,0.0,1209,BNDI
2018-01-01T06:22:43.380000Z,2018-01-01T06:23:43.380000Z,4.86,None,None,0.0,1210,FAKI
2018-01-01T06:22:43.380000Z,2018-01-01T06:23:43.380000Z,4.86,2534,None,1.149999976158142,1211,GSI
2018-01-01T06:22:43.380000Z,2018-01-01T06:23:43.380000Z,4.86,3550,None,0.1599999964237213,1212,JAGI
2018-01-01T06:22:43.380000Z,2018-01-01T06:23:43.380000Z,4.86,3568,None,0.6800000071525574,1213,LHMI
2018-01-01T06:22:43.380000Z,2018-01-01T06:23:43.380000Z,4.86,None,None,0.0,1214,LUWI
2018-01-01T06:22:43.380000Z,2018-01-01T06:23:43.380000Z,4.86,None,None,0.0,1215,MMRI
2018-01-01T06:22:43.380000Z,2018-01-01T06:23:43.380000Z,4.86,758,None,1.940000057220459,1216,MNAI
2018-01-01T06:22:43.380000Z,2018-01-01T06:23:43.380000Z,4.86,None,None,0.0,1217,PLAI
2018-01-01T06:22:43.380000Z,2018-01-01T06:23:43.380000Z,4.86,1384,None,0.07000000029802322,1218,PMBI
2018-01-01T06:22:43.380000Z,2018-01-01T06:23:43.380000Z,4.86,None,None,0.0,1219,SANI
2018-01-01T06:22:43.380000Z,2018-01-01T06:23:43.380000Z,4.86,None,None,0.0,1220,SAUI
2018-01-01T06:22:43.380000Z,2018-01-01T06:23:43.380000Z,4.86,2522,None,-0.4699999988079071,1221,SMRI
2018-01-01T06:22:43.380000Z,2018-01-01T06:23:43.380000Z,4.86,6008,None,-1.4900000095367432,1222,SOEI
2018-01-01T06:22:43.380000Z,2018-01-01T06:23:43.380000Z,4.86,None,None,0.0,1223,TNTI
2018-01-01T06:22:43.380000Z,2018-01-01T06:23:43.380000Z,4.86,None,None,0.0,1224,TOLI2
2018-01-01T06:22:43.380000Z,2018-01-01T06:23:43.380000Z,4.86,2563,None,0.5099999904632568,1225,UGM
2018-01-01T00:52:32.420000Z,2018-01-01T00:53:32.420000Z,4.72,4724,None,-0.09000000357627869,1226,BBJI
2018-01-01T00:52:32.420000Z,2018-01-01T00:53:32.420000Z,4.72,None,None,0.0,1227,BKB
2018-01-01T00:52:32.420000Z,2018-01-01T00:53:32.420000Z,4.72,None,None,0.0,1228,BKNI
2018-01-01T00:52:32.420000Z,2018-01-01T00:53:32.420000Z,4.72,2143,None,0.33000001311302185,1229,BNDI
2018-01-01T00:52:32.420000Z,2018-01-01T00:53:32.420000Z,4.72,None,None,0.0,1230,FAKI
2018-01-01T00:52:32.420000Z,2018-01-01T00:53:32.420000Z,4.72,None,None,0.0,1231,GSI
2018-01-01T00:52:32.420000Z,2018-01-01T00:53:32.420000Z,4.72,None,None,0.0,1232,JAGI
2018-01-01T00:52:32.420000Z,2018-01-01T00:53:32.420000Z,4.72,None,None,0.0,1233,LHMI
2018-01-01T00:52:32.420000Z,2018-01-01T00:53:32.420000Z,4.72,482,None,-0.029999999329447746,1234,LUWI
2018-01-01T00:52:32.420000Z,2018-01-01T00:53:32.420000Z,4.72,None,None,0.0,1235,MMRI
2018-01-01T00:52:32.420000Z,2018-01-01T00:53:32.420000Z,4.72,None,None,0.0,1236,MNAI
2018-01-01T00:52:32.420000Z,2018-01-01T00:53:32.420000Z,4.72,None,None,0.0,1237,PLAI
2018-01-01T00:52:32.420000Z,2018-01-01T00:53:32.420000Z,4.72,None,None,0.0,1238,PMBI
2018-01-01T00:52:32.420000Z,2018-01-01T00:53:32.420000Z,4.72,853,None,-0.23000000417232513,1239,SANI
2018-01-01T00:52:32.420000Z,2018-01-01T00:53:32.420000Z,4.72,None,None,0.0,1240,SAUI
2018-01-01T00:52:32.420000Z,2018-01-01T00:53:32.420000Z,4.72,None,None,0.0,1241,SMRI
2018-01-01T00:52:32.420000Z,2018-01-01T00:53:32.420000Z,4.72,None,None,0.0,1242,SOEI
2018-01-01T00:52:32.420000Z,2018-01-01T00:53:32.420000Z,4.72,1129,None,-0.009999999776482582,1243,TNTI
2018-01-01T00:52:32.420000Z,2018-01-01T00:53:32.420000Z,4.72,992,None,-0.3799999952316284,1244,TOLI2
2018-01-01T00:52:32.420000Z,2018-01-01T00:53:32.420000Z,4.72,None,None,0.0,1245,UGM
